[{"OBJECT_NAME":"ONEWEB-0644","OBJECT_ID":"2023-029N","EPOCH":"2026-03-09T18:33:51.933600","MEAN_MOTION":13.19725577,"ECCENTRICITY":0.00019503,"INCLINATION":87.9221,"RA_OF_ASC_NODE":324.7943,"ARG_OF_PERICENTER":85.6524,"MEAN_ANOMALY":274.4832,"EPHEMERIS_TYPE":0,"CLASSIFICATION_TYPE":"U","NORAD_CAT_ID":55808,"ELEMENT_SET_NO":999,"REV_AT_EPOCH":14579,"BSTAR":-0.00032679506,"MEAN_MOTION_DOT":-1.18e-6,"MEAN_MOTION_DDOT":0},{"OBJECT_NAME":"CZ-4C DEB","OBJECT_ID":"2010-009H","EPOCH":"2026-03-08T23:38:09.256704","MEAN_MOTION":13.04231216,"ECCENTRICITY":0.03091423,"INCLINATION":63.306,"RA_OF_ASC_NODE":221.2066,"ARG_OF_PERICENTER":24.944,"MEAN_ANOMALY":63.3269,"EPHEMERIS_TYPE":0,"CLASSIFICATION_TYPE":"U","NORAD_CAT_ID":38304,"ELEMENT_SET_NO":999,"REV_AT_EPOCH":59623,"BSTAR":0.00043743829,"MEAN_MOTION_DOT":9.5e-7,"MEAN_MOTION_DDOT":0}]
